NORAD_CAT_ID,OBJECT_NAME,OBJECT_TYPE,EPOCH,MEAN_MOTION,ECCENTRICITY,INCLINATION,RA_OF_ASC_NODE,ARG_OF_PERICENTER,MEAN_ANOMALY,BSTAR,MEAN_MOTION_DOT,MEAN_MOTION_DDOT,TLE_LINE0,TLE_LINE1,TLE_LINE2,SEMIMAJOR_AXIS,PERIOD,APOGEE,PERIGEE,DECAYED
53715.0,STARLINK-4686,PAYLOAD,2022-09-12 16:00:00,15.78706256,0.0001022,53.2174,235.6902,91.1537,6.6023,-0.0075296,-0.01196265,0.0,0 STARLINK-4686,1 53715U 22107R   22255.66667824 -.01196265  00000-0 -75296-2 0  9997,2 53715  53.2174 235.6902 0001022  91.1537   6.6023 15.78706256  1301,6712.2419999999975,91.214,334.793,333.421,0.0
53715.0,STARLINK-4686,PAYLOAD,2022-09-12 22:00:00,15.780726800000002,0.0001094,53.2162,234.4426,72.666,6.4341,-0.0078741,-0.01213315,0.0,0 STARLINK-4686,1 53715U 22107R   22255.91667824 -.01213315  00000-0 -78741-2 0  9999,2 53715  53.2162 234.4426 0001094  72.6660   6.4341 15.78072680  1304,6714.0390000000025,91.251,336.6380000000001,335.1690000000001,0.0
53715.0,STARLINK-4686,PAYLOAD,2022-09-13 06:00:00,15.77187214,0.0001254,53.2173,232.7844,70.1215,103.2182,-0.0080551999999999,-0.01194985,0.0,0 STARLINK-4686,1 53715U 22107R   22256.25001157 -.01194985  00000-0 -80552-2 0  9992,2 53715  53.2173 232.7844 0001254  70.1215 103.2182 15.77187214  1395,6716.551,91.302,339.259,337.574,0.0
53715.0,STARLINK-4686,PAYLOAD,2022-09-13 14:00:01,15.76320688,0.0001078,53.2174,231.1253,77.212,189.3134,-0.0083926,-0.01197277,0.0,0 STARLINK-4686,1 53715U 22107R   22256.58334491 -.01197277  00000-0 -83926-2 0  9993,2 53715  53.2174 231.1253 0001078  77.2120 189.3134 15.76320688  1306,6719.013000000001,91.352,341.602,340.153,0.0
53715.0,STARLINK-4686,PAYLOAD,2022-09-13 20:00:01,15.75666915,0.0001115,53.2173,229.8817,81.5808,164.15099999999995,-0.0086006,-0.0119245,0.0,0 STARLINK-4686,1 53715U 22107R   22256.83334491 -.01192450  00000-0 -86006-2 0  9991,2 53715  53.2173 229.8817 0001115  81.5808 164.1510 15.75666915  1481,6720.871,91.39,343.485,341.987,0.0
53715.0,STARLINK-4686,PAYLOAD,2022-09-13 22:00:00,15.75448318,0.0001072999999999,53.2177,229.468,115.4296,243.2403,-0.0086572,-0.01189138,0.0,0 STARLINK-4686,1 53715U 22107R   22256.91667824 -.01189138  00000-0 -86572-2 0  9996,2 53715  53.2177 229.4680 0001073 115.4296 243.2403 15.75448318  1306,6721.493,91.403,344.079,342.63699999999994,0.0
53715.0,STARLINK-4686,PAYLOAD,2022-09-14 14:00:01,15.7358994,0.0001137999999999,53.2173,226.1634,109.248,70.5894,-0.0037524,-0.005052,0.0,0 STARLINK-4686,1 53715U 22107R   22257.58334491 -.00505200  00000-0 -37524-2 0  9995,2 53715  53.2173 226.1634 0001138 109.2480  70.5894 15.73589940  1606,6726.784000000002,91.51,349.414,347.8830000000001,0.0
53715.0,STARLINK-4686,PAYLOAD,2022-09-14 20:00:01,15.73202375,0.0001169,53.2172,224.9245,113.3727,43.4066,7.6246000000000015e-06,4.51e-06,0.0,0 STARLINK-4686,1 53715U 22107R   22257.83334491  .00000451  00000-0  76246-5 0  9996,2 53715  53.2172 224.9245 0001169 113.3727  43.4066 15.73202375  1641,6727.888000000001,91.533,350.54,348.967,0.0
53715.0,STARLINK-4686,PAYLOAD,2022-09-14 22:00:00,15.73286718,0.0001365,53.213,224.5123,108.0164,160.9628,-0.00020304,-0.00029123,0.0,0 STARLINK-4686,1 53715U 22107R   22257.91667824 -.00029123  00000-0 -20304-3 0  9995,2 53715  53.2130 224.5123 0001365 108.0164 160.9628 15.73286718  1305,6727.648,91.528,350.431,348.595,0.0
53715.0,STARLINK-4686,PAYLOAD,2022-09-15 04:00:00,15.73260847,0.0001384,53.2127,223.2768,94.865,150.888,-0.00018826,-0.00027026,0.0,0 STARLINK-4686,1 53715U 22107R   22258.16667824 -.00027026  00000-0 -18826-3 0  9999,2 53715  53.2127 223.2768 0001384  94.8650 150.8880 15.73260847  1690,6727.722,91.53,350.51800000000014,348.656,0.0
53715.0,STARLINK-4686,PAYLOAD,2022-09-15 14:00:01,15.73262974,9.49e-05,53.2135,221.2137,102.468,344.5279,-0.00096509,-0.00134279,0.0,0 STARLINK-4686,1 53715U 22107R   22258.58334491 -.00134279  00000-0 -96509-3 0  9999,2 53715  53.2135 221.2137 0000949 102.4680 344.5279 15.73262974  1307,6727.715999999999,91.53,350.219,348.94199999999995,0.0
53715.0,STARLINK-4686,PAYLOAD,2022-09-15 22:00:00,15.73152369,8.740000000000001e-05,53.2141,219.5635,116.5792,59.3661,0.0004877,0.00068243,0.0,0 STARLINK-4686,1 53715U 22107R   22258.91667824  .00068243  00000-0  48770-3 0  9997,2 53715  53.2141 219.5635 0000874 116.5792  59.3661 15.73152369  1306,6728.031,91.536,350.4840000000001,349.30800000000005,0.0
53715.0,STARLINK-4686,PAYLOAD,2022-09-16 00:00:00,15.73168334,8.03e-05,53.2142,219.1516,113.1468,175.0096,0.00023633,0.00032631,0.0,0 STARLINK-4686,1 53715U 22107R   22259.00001157  .00032631  00000-0  23633-3 0  9992,2 53715  53.2142 219.1516 0000803 113.1468 175.0096 15.73168334  1820,6727.985,91.535,350.391,349.31,0.0
53715.0,STARLINK-4686,PAYLOAD,2022-09-16 14:00:01,15.73203444,0.000101,53.2139,216.2652,107.047,246.7134,-0.00046181,-0.00064941,0.0,0 STARLINK-4686,1 53715U 22107R   22259.58334491 -.00064941  00000-0 -46181-3 0  9999,2 53715  53.2139 216.2652 0001010 107.0470 246.7134 15.73203444  1305,6727.885,91.533,350.43,349.071,0.0
53715.0,STARLINK-4686,PAYLOAD,2022-09-16 22:00:00,15.73150409,0.0001299,53.2141,214.6151,112.052,330.6197,0.00021767,0.00029973,0.0,0 STARLINK-4686,1 53715U 22107R   22259.91667824  .00029973  00000-0  21767-3 0  9992,2 53715  53.2141 214.6151 0001299 112.0520 330.6197 15.73150409  1961,6728.0369999999975,91.536,350.776,349.028,0.0
53715.0,STARLINK-4686,PAYLOAD,2022-09-17 14:00:01,15.73203155,0.0001082,53.2142,211.3167,110.6106,149.8552,-0.00026975,-0.00038309,0.0,0 STARLINK-4686,1 53715U 22107R   22260.58334491 -.00038309  00000-0 -26975-3 0  9999,2 53715  53.2142 211.3167 0001082 110.6106 149.8552 15.73203155  1307,6727.886,91.533,350.47900000000016,349.023,0.0
53715.0,STARLINK-4686,PAYLOAD,2022-09-17 22:00:00,15.73194946,0.0001095999999999,53.2141,209.6668,116.2615,233.1061,0.00028384,0.00039393,0.0,0 STARLINK-4686,1 53715U 22107R   22260.91667824  .00039393  00000-0  28384-3 0  9993,2 53715  53.2141 209.6668 0001096 116.2615 233.1061 15.73194946  1303,6727.91,91.533,350.51199999999994,349.037,0.0
53715.0,STARLINK-4686,PAYLOAD,2022-09-18 04:00:00,15.73217142,0.0001097999999999,53.2137,208.4313,104.0715,221.9967,0.00014748,0.00020143,0.0,0 STARLINK-4686,1 53715U 22107R   22261.16667824  .00020143  00000-0  14748-3 0  9993,2 53715  53.2137 208.4313 0001098 104.0715 221.9967 15.73217142  2169,6727.846,91.532,350.45,348.973,0.0
53715.0,STARLINK-4686,PAYLOAD,2022-09-18 14:00:01,15.73205859,0.0001210999999999,53.2134,206.3678,113.0272,54.3311,0.00012237,0.00016592,0.0,0 STARLINK-4686,1 53715U 22107R   22261.58335648  .00016592  00000-0  12237-3 0  9999,2 53715  53.2134 206.3678 0001211 113.0272  54.3311 15.73205859  1300,6727.878000000002,91.533,350.55800000000005,348.92900000000014,0.0
53715.0,STARLINK-4686,PAYLOAD,2022-09-18 22:00:00,15.73267472,0.0001302,53.2136,204.7182,120.655,135.5696,-0.00047553,-0.0006702,0.0,0 STARLINK-4686,1 53715U 22107R   22261.91667824 -.00067020  00000-0 -47553-3 0  9993,2 53715  53.2136 204.7182 0001302 120.6550 135.5696 15.73267472  1305,6727.703,91.529,350.444,348.69199999999995,0.0
53715.0,STARLINK-4686,PAYLOAD,2022-09-19 06:00:02,15.73207172,0.0001065999999999,53.2137,203.0704,109.4278,235.8475,0.00041034,0.0005738,0.0,0 STARLINK-4686,1 53715U 22107R   22262.25002315  .00057380  00000-0  41034-3 0  9993,2 53715  53.2137 203.0704 0001066 109.4278 235.8475 15.73207172  2331,6727.875,91.533,350.457,349.023,0.0
53715.0,STARLINK-4686,PAYLOAD,2022-09-19 14:00:01,15.73235369,0.000111,53.2139,201.4189,121.3081,312.8653,-0.00059463,-0.00083374,0.0,0 STARLINK-4686,1 53715U 22107R   22262.58334491 -.00083374  00000-0 -59463-3 0  9991,2 53715  53.2139 201.4189 0001110 121.3081 312.8653 15.73235369  2385,6727.794,91.531,350.406,348.913,0.0
53715.0,STARLINK-4686,PAYLOAD,2022-09-19 22:00:00,15.73182819,0.0001209,53.2139,199.7694,122.2161,40.8902,0.00030962,0.00043024,0.0,0 STARLINK-4686,1 53715U 22107R   22262.91667824  .00043024  00000-0  30962-3 0  9996,2 53715  53.2139 199.7694 0001209 122.2161  40.8902 15.73182819  2446,6727.944,91.534,350.62300000000016,348.996,0.0
53715.0,STARLINK-4686,PAYLOAD,2022-09-20 14:00:01,15.73181324,0.0001311,53.2133,196.4701,122.327,218.6294,0.00046421,0.00064982,0.0,0 STARLINK-4686,1 53715U 22107R   22263.58334491  .00064982  00000-0  46421-3 0  9994,2 53715  53.2133 196.4701 0001311 122.3270 218.6294 15.73181324  2549,6727.948,91.534,350.695,348.931,0.0
53715.0,STARLINK-4686,PAYLOAD,2022-09-20 22:00:01,15.73276542,0.0001293,53.2136,194.8208,124.9727,304.9722,-0.00071817,-0.00100542,0.0,0 STARLINK-4686,1 53715U 22107R   22263.91668981 -.00100542  00000-0 -71817-3 0  9997,2 53715  53.2136 194.8208 0001293 124.9727 304.9722 15.73276542  1305,6727.677,91.529,350.412,348.672,0.0
53715.0,STARLINK-4686,PAYLOAD,2022-09-21 06:00:00,15.73166753,0.0001154,53.2138,193.1729,115.3861,43.4768,0.00018926,0.00025986,0.0,0 STARLINK-4686,1 53715U 22107R   22264.25001157  .00025986  00000-0  18926-3 0  9999,2 53715  53.2138 193.1729 0001154 115.3861  43.4768 15.73166753  2652,6727.99,91.535,350.631,349.079,0.0
53715.0,STARLINK-4686,PAYLOAD,2022-09-21 14:00:01,15.73144019,0.0001421,53.2141,191.5213,119.8802,127.8883,0.00016772,0.00022927,0.0,0 STARLINK-4686,1 53715U 22107R   22264.58334491  .00022927  00000-0  16772-3 0  9994,2 53715  53.2141 191.5213 0001421 119.8802 127.8883 15.73144019  2709,6728.055,91.536,350.876,348.964,0.0
53715.0,STARLINK-4686,PAYLOAD,2022-09-21 22:00:00,15.73177168,0.0001524,53.2142,189.8722,118.7861,217.8389,0.00011918,0.00016122,0.0,0 STARLINK-4686,1 53715U 22107R   22264.91667824  .00016122  00000-0  11918-3 0  9997,2 53715  53.2142 189.8722 0001524 118.7861 217.8389 15.73177168  1309,6727.96,91.535,350.851,348.8,0.0
53715.0,STARLINK-4686,PAYLOAD,2022-09-22 14:00:01,15.73165255,0.0001269,53.2137,186.5727,130.7268,23.7525,0.00014541,0.00019805,0.0,0 STARLINK-4686,1 53715U 22107R   22265.58334491  .00019805  00000-0  14541-3 0  9998,2 53715  53.2137 186.5727 0001269 130.7268  23.7525 15.73165255  1303,6727.994000000002,91.535,350.713,349.005,0.0
